OBJECT_NAME,OBJECT_ID,EPOCH,MEAN_MOTION,ECCENTRICITY,INCLINATION,RA_OF_ASC_NODE,ARG_OF_PERICENTER,MEAN_ANOMALY,EPHEMERIS_TYPE,CLASSIFICATION_TYPE,NORAD_CAT_ID,ELEMENT_SET_NO,REV_AT_EPOCH,BSTAR,MEAN_MOTION_DOT,MEAN_MOTION_DDOT
FENGYUN 3D,2017-072A,2026-07-09T06:38:01.699584,14.19744662,.00018586,99.0140,165.0992,25.5771,334.5496,0,U,43010,999,44812,.20012921E-3,.377E-5,0
NOAA 20 (JPSS-1),2017-073A,2026-07-09T06:36:00.000000,14.19515732,.00011567,98.7773,129.5417,129.7093,230.4185,0,U,43013,999,44760,.32170244E-4,.24E-6,0
GOES 17,2018-022A,2026-07-09T06:22:57.631584,1.00271300,.00005849,0.9903,85.3521,71.0327,137.0684,0,U,43226,999,3064,0,-.17E-5,0
SENTINEL-3B,2018-039A,2026-07-09T03:22:05.749248,14.26740920,.0001006,98.6239,257.3566,120.1387,239.9893,0,U,43437,999,42725,.38280816E-4,.49E-6,0
FENGYUN 2H,2018-050A,2026-07-09T00:20:28.735008,1.00267869,.00022228,3.0842,78.8189,130.6758,161.8051,0,U,43491,999,2965,0,-.116E-5,0
METOP-C,2018-087A,2026-07-09T07:27:00.297504,14.21517995,.00022146,98.6633,249.5085,101.3156,258.8270,0,U,43689,999,39797,.42635925E-4,.5E-6,0
GEO-KOMPSAT-2A,2018-100A,2026-07-09T07:05:38.631264,1.00270111,.0002245,0.0266,139.9618,320.8676,61.0759,0,U,43823,999,2785,0,-.33E-5,0
METEOR-M2 2,2019-038A,2026-07-09T07:14:45.919968,14.24373005,.000108,98.9160,177.9148,14.8380,345.2830,0,U,44387,999,36444,.21140604E-3,.443E-5,0
ARKTIKA-M 1,2021-016A,2026-07-07T10:17:34.884672,2.00614486,.72950864,63.2524,54.6812,270.0380,14.5466,0,U,47719,999,3919,0,-.257E-5,0
FENGYUN 3E,2021-062A,2026-07-09T07:52:44.931648,14.19907010,.00025081,98.7504,193.4896,49.1059,311.0335,0,U,49008,999,25972,.12045942E-3,.212E-5,0
GOES 18,2022-021A,2026-07-09T05:55:38.623584,1.00271846,.00005569,0.0093,263.2986,279.4744,56.3174,0,U,51850,999,681,0,.11E-5,0
NOAA 21 (JPSS-2),2022-150A,2026-07-09T07:22:38.769888,14.19540451,.00026925,98.7061,128.7250,114.8760,245.2696,0,U,54234,999,18968,.2677493E-4,.13E-6,0
METEOSAT-12 (MTG-I1),2022-170C,2026-07-09T07:11:38.724864,1.00266717,.00038751,0.7188,18.6197,83.2778,293.0233,0,U,54743,999,1320,0,.5E-7,0
TIANMU-1 03,2023-039A,2026-07-09T07:01:31.937664,15.47926894,.0003072,97.5244,5.1385,41.9073,318.2412,0,U,55973,999,18425,.22467114E-3,.11619E-3,0
TIANMU-1 04,2023-039B,2026-07-09T06:33:52.513344,15.48545798,.00035929,97.5177,4.2744,34.3928,325.7554,0,U,55974,999,18426,.23419934E-3,.12383E-3,0
TIANMU-1 05,2023-039C,2026-07-09T06:35:23.532288,15.47849119,.00034475,97.5223,4.7267,61.6474,298.5123,0,U,55975,999,18423,.2279058E-3,.11757E-3,0
TIANMU-1 06,2023-039D,2026-07-09T06:40:46.599168,15.48443385,.000359,97.5230,5.3888,54.3729,305.7855,0,U,55976,999,18426,.22903264E-3,.12063E-3,0
FENGYUN 3G,2023-055A,2026-07-09T07:16:21.144864,15.53609323,.00071918,49.9917,231.9842,29.6448,330.4926,0,U,56232,999,18344,.25959833E-3,.16464E-3,0
METEOR-M2 3,2023-091A,2026-07-09T07:13:55.942752,14.24048591,.00051285,98.6071,244.8259,103.4952,256.6798,0,U,57166,999,15766,.663305E-5,-.28E-6,0
TIANMU-1 07,2023-101A,2026-07-09T06:32:06.223200,15.30070150,.00040627,97.2584,240.4350,76.8339,283.3356,0,U,57399,999,16502,.1526945E-3,.437E-4,0
TIANMU-1 08,2023-101B,2026-07-09T07:18:09.348768,15.30074512,.00050852,97.2573,240.2337,61.7067,298.4686,0,U,57400,999,16502,.15127622E-3,.433E-4,0
TIANMU-1 09,2023-101C,2026-07-09T06:53:33.205632,15.30113755,.000468,97.2531,239.6215,78.0306,282.1459,0,U,57401,999,16502,.15620418E-3,.4478E-4,0
TIANMU-1 10,2023-101D,2026-07-09T07:41:42.628128,15.30087236,.00060491,97.2610,240.7273,69.6902,290.4989,0,U,57402,999,16502,.15564828E-3,.4459E-4,0
FENGYUN 3F,2023-111A,2026-07-09T07:28:49.655712,14.19942822,.00013939,98.6828,259.9073,78.9764,281.1569,0,U,57490,999,15200,.23867737E-4,.7E-7,0
ARKTIKA-M 2,2023-198A,2026-07-08T04:42:49.048128,2.00608968,.69084583,63.2191,152.0158,267.3598,18.7565,0,U,58584,999,1874,0,.204E-5,0
TIANMU-1 11,2023-205A,2026-07-09T07:58:18.140160,15.27225241,.00067997,97.3447,211.5434,288.6689,71.3811,0,U,58645,999,14090,.14129766E-3,.3698E-4,0
TIANMU-1 12,2023-205B,2026-07-09T07:17:37.188096,15.27055963,.00055088,97.3436,211.2649,261.8572,98.2042,0,U,58646,999,14088,.15317129E-3,.3994E-4,0
TIANMU-1 13,2023-205C,2026-07-09T08:05:44.117088,15.27048280,.00052696,97.3463,211.5757,237.6289,122.4441,0,U,58647,999,14088,.1498817E-3,.3905E-4,0
TIANMU-1 14,2023-205D,2026-07-09T07:43:30.177120,15.27092258,.00059645,97.3399,210.7250,245.8520,114.2095,0,U,58648,999,14088,.14777685E-3,.3855E-4,0
TIANMU-1 19,2023-208A,2026-07-09T07:15:17.805888,15.31916066,.00040303,97.4514,306.7220,221.8978,138.1956,0,U,58660,999,14071,.19630276E-3,.5971E-4,0
