FENGYUN 3D              
1 43010U 17072A   26190.27640856  .00000377  00000+0  20013-3 0  9996
2 43010  99.0140 165.0992 0001858  25.5771 334.5496 14.19744662448121
NOAA 20 (JPSS-1)        
1 43013U 17073A   26190.27500000  .00000024  00000+0  32170-4 0  9993
2 43013  98.7773 129.5417 0001156 129.7093 230.4185 14.19515732447609
GOES 17                 
1 43226U 18022A   26190.26594481 -.00000170  00000+0  00000+0 0  9994
2 43226   0.9903  85.3521 0000584  71.0327 137.0684  1.00271300 30647
SENTINEL-3B             
1 43437U 18039A   26190.14034432  .00000049  00000+0  38281-4 0  9999
2 43437  98.6239 257.3566 0001006 120.1387 239.9893 14.26740920427251
FENGYUN 2H              
1 43491U 18050A   26190.01422147 -.00000116  00000+0  00000+0 0  9991
2 43491   3.0842  78.8189 0002222 130.6758 161.8051  1.00267869 29652
METOP-C                 
1 43689U 18087A   26190.31042011  .00000050  00000+0  42636-4 0  9993
2 43689  98.6633 249.5085 0002214 101.3156 258.8270 14.21517995397977
GEO-KOMPSAT-2A          
1 43823U 18100A   26190.29558601 -.00000330  00000+0  00000+0 0  9999
2 43823   0.0266 139.9618 0002245 320.8676  61.0759  1.00270111 27851
METEOR-M2 2             
1 44387U 19038A   26190.30192037  .00000443  00000+0  21141-3 0  9992
2 44387  98.9160 177.9148 0001080  14.8380 345.2830 14.24373005364446
ARKTIKA-M 1             
1 47719U 21016A   26188.42887598 -.00000257  00000+0  00000+0 0  9997
2 47719  63.2524  54.6812 7295086 270.0380  14.5466  2.00614486 39194
FENGYUN 3E              
1 49008U 21062A   26190.32829782  .00000212  00000+0  12046-3 0  9991
2 49008  98.7504 193.4896 0002508  49.1059 311.0335 14.19907010259722
GOES 18                 
1 51850U 22021A   26190.24697481  .00000110  00000+0  00000+0 0  9995
2 51850   0.0093 263.2986 0000556 279.4744  56.3174  1.00271846  6812
NOAA 21 (JPSS-2)        
1 54234U 22150A   26190.30739317  .00000013  00000+0  26775-4 0  9993
2 54234  98.7061 128.7250 0002692 114.8760 245.2696 14.19540451189682
METEOSAT-12 (MTG-I1)    
1 54743U 22170C   26190.29975376  .00000005  00000+0  00000+0 0  9994
2 54743   0.7188  18.6197 0003875  83.2778 293.0233  1.00266717 13207
TIANMU-1 03             
1 55973U 23039A   26190.29273076  .00011619  00000+0  22467-3 0  9991
2 55973  97.5244   5.1385 0003072  41.9073 318.2412 15.47926894184256
TIANMU-1 04             
1 55974U 23039B   26190.27352446  .00012383  00000+0  23420-3 0  9998
2 55974  97.5177   4.2744 0003592  34.3928 325.7554 15.48545798184265
TIANMU-1 05             
1 55975U 23039C   26190.27457792  .00011757  00000+0  22791-3 0  9993
2 55975  97.5223   4.7267 0003447  61.6474 298.5123 15.47849119184230
TIANMU-1 06             
1 55976U 23039D   26190.27831712  .00012063  00000+0  22903-3 0  9998
2 55976  97.5230   5.3888 0003590  54.3729 305.7855 15.48443385184268
FENGYUN 3G              
1 56232U 23055A   26190.30302251  .00016464  00000+0  25960-3 0  9992
2 56232  49.9917 231.9842 0007191  29.6448 330.4926 15.53609323183443
METEOR-M2 3             
1 57166U 23091A   26190.30134193 -.00000028  00000+0  66331-5 0  9996
2 57166  98.6071 244.8259 0005128 103.4952 256.6798 14.24048591157668
TIANMU-1 07             
1 57399U 23101A   26190.27229425  .00004370  00000+0  15269-3 0  9990
2 57399  97.2584 240.4350 0004062  76.8339 283.3356 15.30070150165022
TIANMU-1 08             
1 57400U 23101B   26190.30427487  .00004330  00000+0  15128-3 0  9995
2 57400  97.2573 240.2337 0005085  61.7067 298.4686 15.30074512165022
TIANMU-1 09             
1 57401U 23101C   26190.28718988  .00004478  00000+0  15620-3 0  9992
2 57401  97.2531 239.6215 0004680  78.0306 282.1459 15.30113755165022
TIANMU-1 10             
1 57402U 23101D   26190.32063227  .00004459  00000+0  15565-3 0  9994
2 57402  97.2610 240.7273 0006049  69.6902 290.4989 15.30087236165021
FENGYUN 3F              
1 57490U 23111A   26190.31168583  .00000007  00000+0  23868-4 0  9993
2 57490  98.6828 259.9073 0001393  78.9764 281.1569 14.19942822152002
ARKTIKA-M 2             
1 58584U 23198A   26189.19640102  .00000204  00000+0  00000+0 0  9996
2 58584  63.2191 152.0158 6908458 267.3598  18.7565  2.00608968 18747
TIANMU-1 11             
1 58645U 23205A   26190.33215440  .00003698  00000+0  14130-3 0  9997
2 58645  97.3447 211.5434 0006799 288.6689  71.3811 15.27225241140908
TIANMU-1 12             
1 58646U 23205B   26190.30390264  .00003994  00000+0  15317-3 0  9990
2 58646  97.3436 211.2649 0005508 261.8572  98.2042 15.27055963140886
TIANMU-1 13             
1 58647U 23205C   26190.33731617  .00003905  00000+0  14988-3 0  9990
2 58647  97.3463 211.5757 0005269 237.6289 122.4441 15.27048280140887
TIANMU-1 14             
1 58648U 23205D   26190.32187705  .00003855  00000+0  14778-3 0  9994
2 58648  97.3399 210.7250 0005964 245.8520 114.2095 15.27092258140884
TIANMU-1 19             
1 58660U 23208A   26190.30228942  .00005971  00000+0  19630-3 0  9991
2 58660  97.4514 306.7220 0004030 221.8978 138.1956 15.31916066140715
